{
  "type": "FeatureCollection",
  "features": [
    {
      "type": "Feature",
      "properties": {
        "norad_id": 30565,
        "name": "FENGYUN 1C DEB",
        "group": "fengyun-1c-debris",
        "lat": 8.513897393403502,
        "lon": -131.15606003820542,
        "alt_km": 796.6989764572281,
        "timestamp": "2025-12-26T17:24:54.996651+00:00",
        "meta_object_name": "FENGYUN 1C DEB",
        "meta_object_id": "1999-025ALF",
        "meta_epoch": "2025-12-24T14:25:15.635424",
        "meta_mean_motion": 14.10013341,
        "meta_eccentricity": 0.01427116,
        "meta_inclination": 98.4536,
        "meta_ra_of_asc_node": 228.1221,
        "meta_arg_of_pericenter": 322.6518,
        "meta_mean_anomaly": 65.4097,
        "meta_ephemeris_type": 0,
        "meta_classification_type": "U",
        "meta_norad_cat_id": 30565,
        "meta_element_set_no": 999,
        "meta_rev_at_epoch": 96094,
        "meta_bstar": 0.0018093624,
        "meta_mean_motion_dot": 3.469e-05,
        "meta_mean_motion_ddot": 0,
        "tle_line1": "1 30565U 99025ALF 25358.60087541  .00003469  00000+0  18094-2 0  9993",
        "tle_line2": "2 30565  98.4536 228.1221 0142711 322.6518  65.4097 14.10013341960944"
      },
      "geometry": {
        "type": "Point",
        "coordinates": [
          -131.15606003820542,
          8.513897393403502
        ]
      }
    },
    {
      "type": "Feature",
      "properties": {
        "norad_id": 30566,
        "name": "FENGYUN 1C DEB",
        "group": "fengyun-1c-debris",
        "lat": 34.44265070476649,
        "lon": 43.2476130650625,
        "alt_km": 866.5912674601132,
        "timestamp": "2025-12-26T17:24:54.996661+00:00",
        "meta_object_name": "FENGYUN 1C DEB",
        "meta_object_id": "1999-025ALG",
        "meta_epoch": "2025-12-26T02:15:50.151744",
        "meta_mean_motion": 14.11747852,
        "meta_eccentricity": 0.00683474,
        "meta_inclination": 99.2153,
        "meta_ra_of_asc_node": 48.9917,
        "meta_arg_of_pericenter": 145.4855,
        "meta_mean_anomaly": 283.5877,
        "meta_ephemeris_type": 0,
        "meta_classification_type": "U",
        "meta_norad_cat_id": 30566,
        "meta_element_set_no": 999,
        "meta_rev_at_epoch": 96571,
        "meta_bstar": 0.0012998281,
        "meta_mean_motion_dot": 2.375e-05,
        "meta_mean_motion_ddot": 0,
        "tle_line1": "1 30566U 99025ALG 25360.09433046  .00002375  00000+0  12998-2 0  9997",
        "tle_line2": "2 30566  99.2153  48.9917 0068347 145.4855 283.5877 14.11747852965717"
      },
      "geometry": {
        "type": "Point",
        "coordinates": [
          43.2476130650625,
          34.44265070476649
        ]
      }
    },
    {
      "type": "Feature",
      "properties": {
        "norad_id": 30567,
        "name": "FENGYUN 1C DEB",
        "group": "fengyun-1c-debris",
        "lat": -31.790227027312266,
        "lon": 165.55158134589993,
        "alt_km": 831.575436233441,
        "timestamp": "2025-12-26T17:24:54.996671+00:00",
        "meta_object_name": "FENGYUN 1C DEB",
        "meta_object_id": "1999-025ALH",
        "meta_epoch": "2025-12-25T12:02:24.751104",
        "meta_mean_motion": 14.08910336,
        "meta_eccentricity": 0.0109355,
        "meta_inclination": 98.7765,
        "meta_ra_of_asc_node": 349.8541,
        "meta_arg_of_pericenter": 153.2846,
        "meta_mean_anomaly": 333.145,
        "meta_ephemeris_type": 0,
        "meta_classification_type": "U",
        "meta_norad_cat_id": 30567,
        "meta_element_set_no": 999,
        "meta_rev_at_epoch": 96953,
        "meta_bstar": 0.00032264,
        "meta_mean_motion_dot": 5.47e-06,
        "meta_mean_motion_ddot": 0,
        "tle_line1": "1 30567U 99025ALH 25359.50167536  .00000547  00000+0  32264-3 0  9998",
        "tle_line2": "2 30567  98.7765 349.8541 0109355 153.2846 333.1450 14.08910336969537"
      },
      "geometry": {
        "type": "Point",
        "coordinates": [
          165.55158134589993,
          -31.790227027312266
        ]
      }
    },
    {
      "type": "Feature",
      "properties": {
        "norad_id": 30568,
        "name": "FENGYUN 1C DEB",
        "group": "fengyun-1c-debris",
        "lat": -81.03666491744995,
        "lon": -94.76370980245107,
        "alt_km": 720.0763429667841,
        "timestamp": "2025-12-26T17:24:54.996681+00:00",
        "meta_object_name": "FENGYUN 1C DEB",
        "meta_object_id": "1999-025ALJ",
        "meta_epoch": "2025-12-26T00:15:48.303936",
        "meta_mean_motion": 14.55507281,
        "meta_eccentricity": 0.0015763,
        "meta_inclination": 98.9425,
        "meta_ra_of_asc_node": 171.1245,
        "meta_arg_of_pericenter": 154.3804,
        "meta_mean_anomaly": 332.3779,
        "meta_ephemeris_type": 0,
        "meta_classification_type": "U",
        "meta_norad_cat_id": 30568,
        "meta_element_set_no": 999,
        "meta_rev_at_epoch": 97852,
        "meta_bstar": 0.0032218067,
        "meta_mean_motion_dot": 0.00014025,
        "meta_mean_motion_ddot": 0,
        "tle_line1": "1 30568U 99025ALJ 25360.01097574  .00014025  00000+0  32218-2 0  9995",
        "tle_line2": "2 30568  98.9425 171.1245 0015763 154.3804 332.3779 14.55507281978522"
      },
      "geometry": {
        "type": "Point",
        "coordinates": [
          -94.76370980245107,
          -81.03666491744995
        ]
      }
    },
    {
      "type": "Feature",
      "properties": {
        "norad_id": 30569,
        "name": "FENGYUN 1C DEB",
        "group": "fengyun-1c-debris",
        "lat": 44.818848390314784,
        "lon": -30.429120175893665,
        "alt_km": 644.2782026664672,
        "timestamp": "2025-12-26T17:24:54.996691+00:00",
        "meta_object_name": "FENGYUN 1C DEB",
        "meta_object_id": "1999-025ALK",
        "meta_epoch": "2025-12-25T22:53:24.037152",
        "meta_mean_motion": 14.74230793,
        "meta_eccentricity": 0.0005929,
        "meta_inclination": 98.7371,
        "meta_ra_of_asc_node": 139.9491,
        "meta_arg_of_pericenter": 38.1462,
        "meta_mean_anomaly": 322.0163,
        "meta_ephemeris_type": 0,
        "meta_classification_type": "U",
        "meta_norad_cat_id": 30569,
        "meta_element_set_no": 999,
        "meta_rev_at_epoch": 98401,
        "meta_bstar": 0.0033028,
        "meta_mean_motion_dot": 0.00021839,
        "meta_mean_motion_ddot": 0,
        "tle_line1": "1 30569U 99025ALK 25359.95375043  .00021839  00000+0  33028-2 0  9998",
        "tle_line2": "2 30569  98.7371 139.9491 0005929  38.1462 322.0163 14.74230793984014"
      },
      "geometry": {
        "type": "Point",
        "coordinates": [
          -30.429120175893665,
          44.818848390314784
        ]
      }
    },
    {
      "type": "Feature",
      "properties": {
        "norad_id": 30570,
        "name": "FENGYUN 1C DEB",
        "group": "fengyun-1c-debris",
        "lat": -67.42083595411012,
        "lon": -168.73960209116936,
        "alt_km": 845.984482189866,
        "timestamp": "2025-12-26T17:24:54.996701+00:00",
        "meta_object_name": "FENGYUN 1C DEB",
        "meta_object_id": "1999-025ALL",
        "meta_epoch": "2025-12-26T01:16:35.552064",
        "meta_mean_motion": 14.14291681,
        "meta_eccentricity": 0.00358672,
        "meta_inclination": 98.7139,
        "meta_ra_of_asc_node": 32.2473,
        "meta_arg_of_pericenter": 174.0526,
        "meta_mean_anomaly": 252.7776,
        "meta_ephemeris_type": 0,
        "meta_classification_type": "U",
        "meta_norad_cat_id": 30570,
        "meta_element_set_no": 999,
        "meta_rev_at_epoch": 97186,
        "meta_bstar": 0.00043391938,
        "meta_mean_motion_dot": 7.91e-06,
        "meta_mean_motion_ddot": 0,
        "tle_line1": "1 30570U 99025ALL 25360.05318926  .00000791  00000+0  43392-3 0  9990",
        "tle_line2": "2 30570  98.7139  32.2473 0035867 174.0526 252.7776 14.14291681971863"
      },
      "geometry": {
        "type": "Point",
        "coordinates": [
          -168.73960209116936,
          -67.42083595411012
        ]
      }
    },
    {
      "type": "Feature",
      "properties": {
        "norad_id": 30571,
        "name": "FENGYUN 1C DEB",
        "group": "fengyun-1c-debris",
        "lat": 5.0040397824763865,
        "lon": 25.76956008589097,
        "alt_km": 874.449884614457,
        "timestamp": "2025-12-26T17:24:54.996711+00:00",
        "meta_object_name": "FENGYUN 1C DEB",
        "meta_object_id": "1999-025ALM",
        "meta_epoch": "2025-12-26T02:24:40.831776",
        "meta_mean_motion": 14.10707874,
        "meta_eccentricity": 0.00213396,
        "meta_inclination": 98.7304,
        "meta_ra_of_asc_node": 25.9332,
        "meta_arg_of_pericenter": 195.3337,
        "meta_mean_anomaly": 236.6553,
        "meta_ephemeris_type": 0,
        "meta_classification_type": "U",
        "meta_norad_cat_id": 30571,
        "meta_element_set_no": 999,
        "meta_rev_at_epoch": 97075,
        "meta_bstar": 0.0002700905,
        "meta_mean_motion_dot": 4.41e-06,
        "meta_mean_motion_ddot": 0,
        "tle_line1": "1 30571U 99025ALM 25360.10047259  .00000441  00000+0  27009-3 0  9994",
        "tle_line2": "2 30571  98.7304  25.9332 0021339 195.3337 236.6553 14.10707874970759"
      },
      "geometry": {
        "type": "Point",
        "coordinates": [
          25.76956008589097,
          5.0040397824763865
        ]
      }
    }
  ]
}